STARLINK-31886          
1 59662U 24084J   26197.58113884 -.00000521  00000+0 -94275-5 0  9990
2 59662  43.0018  34.0423 0000783 262.0629  98.0134 15.27574920124089
STARLINK-31909          
1 59663U 24084K   26197.86567031  .00000382  00000+0  23413-4 0  9997
2 59663  43.0044  31.9193 0001727 277.2222  82.8434 15.27579408124131
STARLINK-31910          
1 59664U 24084L   26197.87979681  .00001652  00000+0  69535-4 0  9993
2 59664  43.0021  31.9740 0001136 277.7864  82.2859 15.27578694124137
STARLINK-31902          
1 59666U 24084N   26197.85039049  .00000955  00000+0  44226-4 0  9993
2 59666  43.0028  32.6200 0001079 271.7275  88.3453 15.27578531124127
STARLINK-31913          
1 59667U 24084P   26197.94694977  .00001418  00000+0  61033-4 0  9991
2 59667  43.0024  28.1611 0001504 267.3960  92.6719 15.27585688124185
STARLINK-31866          
1 59668U 24084Q   26197.53456064  .00000029  00000+0  10578-4 0  9995
2 59668  43.0027  26.7460 0001760 261.2117  98.8535 15.27575786124166
STARLINK-31917          
1 59669U 24084R   26197.57085623  .00000100  00000+0  13171-4 0  9991
2 59669  43.0031  33.9512 0001584 265.2158  94.8512 15.27573155124083
STARLINK-31860          
1 59670U 24084S   26197.89570054  .00000443  00000+0  25630-4 0  9998
2 59670  43.0019  28.6389 0000982 251.8197 108.2548 15.27580839124153
STARLINK-31854          
1 59671U 24084T   26197.52488480  .00001863  00000+0  77240-4 0  9991
2 59671  43.0086   1.1802 0001965 286.1981  73.8654 15.27576537124434
STARLINK-31842          
1 59672U 24084U   26197.57648120  .00000079  00000+0  12372-4 0  9999
2 59672  43.0019  30.5387 0000632 212.4106 147.6707 15.27577851124121
STARLINK-31871          
1 59673U 24084V   26196.97467281 -.00000158  00000+0  37818-5 0  9992
2 59673  43.0046  37.2186 0001140 275.3472  84.7250 15.27574774123991
STARLINK-31875          
1 59674U 24084W   26197.88800326 -.00000262  00000+0  43467-8 0  9991
2 59674  42.9969  28.5837 0000558  29.8523 330.2360 15.27574228124177
STARLINK-31877          
1 59675U 24084X   26197.97087470  .00000564  00000+0  30022-4 0  9992
2 59675  43.0046  31.7993 0002031 256.2357 103.8268 15.27583484124146
STARLINK-31884          
1 59676U 24084Y   26197.82855269  .00014600  00000+0  53893-3 0  9992
2 59676  43.0072  32.4661 0001017 253.5802 106.4937 15.27585928124129
2024-085C               
1 59679U 24085C   26198.17866462  .00005542  00000+0  16737-3 0  9993
2 59679  97.3281 273.8366 0024493 293.0160  66.8500 15.34374651122241
2024-085D               
1 59680U 24085D   26198.15795791  .00006511  00000+0  18505-3 0  9991
2 59680  97.3229 273.7831 0011384 310.4113  49.6137 15.36450187122266
STARLINK-32108          
1 59682U 24086A   26197.98223234 -.00000089  00000+0  62744-5 0  9993
2 59682  43.0041  53.3295 0001001 278.4758  81.5980 15.27574908123830
STARLINK-32080          
1 59683U 24086B   26197.93867051  .00002932  00000+0  11599-3 0  9998
2 59683  43.0018  53.8657 0001277 253.2916 106.7796 15.27593012123847
STARLINK-32091          
1 59684U 24086C   26197.98997161 -.00000481  00000+0 -79696-5 0  9993
2 59684  42.9995  42.1810 0000505 250.3595 109.7202 15.27573337123984
STARLINK-32085          
1 59685U 24086D   26197.64293948 -.00000077  00000+0  67279-5 0  9993
2 59685  43.0065  51.6559 0001092 264.0524  96.0203 15.27576045123838
STARLINK-32100          
1 59686U 24086E   26197.86060634 -.00000184  00000+0  28299-5 0  9990
2 59686  43.0034  32.3060 0001250 273.4278  86.6431 15.27576064124070
STARLINK-32089          
1 59687U 24086F   26197.88906812 -.00000546  00000+0 -10322-4 0  9990
2 59687  43.0009  50.0683 0000903 267.5316  92.5432 15.27572706123875
STARLINK-32103          
1 59688U 24086G   26197.88922703  .00000944  00000+0  43809-4 0  9994
2 59688  43.0053  39.6854 0001523 271.0214  89.0463 15.27584418123995
STARLINK-32105          
1 59689U 24086H   26197.88264587 -.00002514  00000+0 -81903-4 0  9998
2 59689  42.9998  50.0205 0000731 282.5271  77.5499 15.27571173123871
STARLINK-32106          
1 59690U 24086J   26197.97840266  .00001151  00000+0  51327-4 0  9995
2 59690  43.0003  42.0896 0000595 264.9178  95.1605 15.27575843123971
STARLINK-32090          
1 59691U 24086K   26198.00022331 -.00000894  00000+0 -22956-4 0  9997
2 59691  43.0056  53.4924 0001389 276.3800  83.6894 15.27579004123840
STARLINK-32088          
1 59693U 24086M   26197.98611928  .00004843  00000+0  18559-3 0  9990
2 59693  42.9997  42.1477 0000811 249.1758 110.9007 15.27546390123977
STARLINK-32107          
1 59694U 24086N   26197.98786505  .00000278  00000+0  19627-4 0  9991
2 59694  43.0040  49.9454 0001265 269.9236  90.1470 15.27574663123881
STARLINK-32104          
1 59695U 24086P   26197.98704676  .00000919  00000+0  42926-4 0  9991
2 59695  43.0021  46.4061 0001152 269.6694  90.4025 15.27576614123929
STARLINK-32094          
1 59696U 24086Q   26197.99171703  .00000136  00000+0  14468-4 0  9993
2 59696  43.0042  49.9709 0001410 266.0312  94.0379 15.27577544123885
