OBJECT_NAME,OBJECT_ID,EPOCH,MEAN_MOTION,ECCENTRICITY,INCLINATION,RA_OF_ASC_NODE,ARG_OF_PERICENTER,MEAN_ANOMALY,EPHEMERIS_TYPE,CLASSIFICATION_TYPE,NORAD_CAT_ID,ELEMENT_SET_NO,REV_AT_EPOCH,BSTAR,MEAN_MOTION_DOT,MEAN_MOTION_DDOT
STARLINK-31886,2024-084J,2026-07-16T13:56:50.395776,15.27574920,.0000783,43.0018,34.0423,262.0629,98.0134,0,U,59662,999,12408,-.94275E-5,-.521E-5,0
STARLINK-31909,2024-084K,2026-07-16T20:46:33.914784,15.27579408,.0001727,43.0044,31.9193,277.2222,82.8434,0,U,59663,999,12413,.23413E-4,.382E-5,0
STARLINK-31910,2024-084L,2026-07-16T21:06:54.444384,15.27578694,.0001136,43.0021,31.9740,277.7864,82.2859,0,U,59664,999,12413,.69535E-4,.1652E-4,0
STARLINK-31902,2024-084N,2026-07-16T20:24:33.738336,15.27578531,.0001079,43.0028,32.6200,271.7275,88.3453,0,U,59666,999,12412,.44226E-4,.955E-5,0
STARLINK-31913,2024-084P,2026-07-16T22:43:36.460128,15.27585688,.0001504,43.0024,28.1611,267.3960,92.6719,0,U,59667,999,12418,.61033E-4,.1418E-4,0
STARLINK-31866,2024-084Q,2026-07-16T12:49:46.039296,15.27575786,.000176,43.0027,26.7460,261.2117,98.8535,0,U,59668,999,12416,.10578E-4,.29E-6,0
STARLINK-31917,2024-084R,2026-07-16T13:42:01.978272,15.27573155,.0001584,43.0031,33.9512,265.2158,94.8512,0,U,59669,999,12408,.13171E-4,.1E-5,0
STARLINK-31860,2024-084S,2026-07-16T21:29:48.526656,15.27580839,.0000982,43.0019,28.6389,251.8197,108.2548,0,U,59670,999,12415,.2563E-4,.443E-5,0
STARLINK-31854,2024-084T,2026-07-16T12:35:50.046720,15.27576537,.0001965,43.0086,1.1802,286.1981,73.8654,0,U,59671,999,12443,.7724E-4,.1863E-4,0
STARLINK-31842,2024-084U,2026-07-16T13:50:07.975680,15.27577851,.0000632,43.0019,30.5387,212.4106,147.6707,0,U,59672,999,12412,.12372E-4,.79E-6,0
STARLINK-31871,2024-084V,2026-07-15T23:23:31.730784,15.27574774,.00011401,43.0046,37.2186,275.3472,84.7250,0,U,59673,999,12399,.3781799E-5,-.158E-5,0
STARLINK-31875,2024-084W,2026-07-16T21:18:43.481664,15.27574228,.0000558,42.9969,28.5837,29.8523,330.2360,0,U,59674,999,12417,.43467E-8,-.262E-5,0
STARLINK-31877,2024-084X,2026-07-16T23:18:03.574080,15.27583484,.0002031,43.0046,31.7993,256.2357,103.8268,0,U,59675,999,12414,.30022E-4,.564E-5,0
STARLINK-31884,2024-084Y,2026-07-16T19:53:06.952416,15.27585928,.0001017,43.0072,32.4661,253.5802,106.4937,0,U,59676,999,12412,.53893E-3,.146E-3,0
2024-085C,2024-085C,2026-07-17T04:17:16.623168,15.34374651,.0024493,97.3281,273.8366,293.0160,66.8500,0,U,59679,999,12224,.16737E-3,.5542E-4,0
2024-085D,2024-085D,2026-07-17T03:47:27.563424,15.36450187,.0011384,97.3229,273.7831,310.4113,49.6137,0,U,59680,999,12226,.18505E-3,.6511E-4,0
STARLINK-32108,2024-086A,2026-07-16T23:34:24.874176,15.27574908,.0001001,43.0041,53.3295,278.4758,81.5980,0,U,59682,999,12383,.62744E-5,-.89E-6,0
STARLINK-32080,2024-086B,2026-07-16T22:31:41.132064,15.27593012,.0001277,43.0018,53.8657,253.2916,106.7796,0,U,59683,999,12384,.11599E-3,.2932E-4,0
STARLINK-32091,2024-086C,2026-07-16T23:45:33.547104,15.27573337,.0000505,42.9995,42.1810,250.3595,109.7202,0,U,59684,999,12398,-.79696E-5,-.481E-5,0
STARLINK-32085,2024-086D,2026-07-16T15:25:49.971072,15.27576045,.0001092,43.0065,51.6559,264.0524,96.0203,0,U,59685,999,12383,.67279E-5,-.77E-6,0
STARLINK-32100,2024-086E,2026-07-16T20:39:16.387776,15.27576064,.000125,43.0034,32.3060,273.4278,86.6431,0,U,59686,999,12407,.28299E-5,-.184E-5,0
STARLINK-32089,2024-086F,2026-07-16T21:20:15.485568,15.27572706,.0000903,43.0009,50.0683,267.5316,92.5432,0,U,59687,999,12387,-.10322E-4,-.546E-5,0
STARLINK-32103,2024-086G,2026-07-16T21:20:29.215392,15.27584418,.0001523,43.0053,39.6854,271.0214,89.0463,0,U,59688,999,12399,.43809E-4,.944E-5,0
STARLINK-32105,2024-086H,2026-07-16T21:11:00.603168,15.27571173,.0000731,42.9998,50.0205,282.5271,77.5499,0,U,59689,999,12387,-.81903E-4,-.2514E-4,0
STARLINK-32106,2024-086J,2026-07-16T23:28:53.989824,15.27575843,.0000595,43.0003,42.0896,264.9178,95.1605,0,U,59690,999,12397,.51327E-4,.1151E-4,0
STARLINK-32090,2024-086K,2026-07-17T00:00:19.293984,15.27579004,.0001389,43.0056,53.4924,276.3800,83.6894,0,U,59691,999,12384,-.22956E-4,-.894E-5,0
STARLINK-32088,2024-086M,2026-07-16T23:40:00.705792,15.27546390,.0000811,42.9997,42.1477,249.1758,110.9007,0,U,59693,999,12397,.18559E-3,.4843E-4,0
STARLINK-32107,2024-086N,2026-07-16T23:42:31.540320,15.27574663,.0001265,43.0040,49.9454,269.9236,90.1470,0,U,59694,999,12388,.19627E-4,.278E-5,0
STARLINK-32104,2024-086P,2026-07-16T23:41:20.840064,15.27576614,.0001152,43.0021,46.4061,269.6694,90.4025,0,U,59695,999,12392,.42926E-4,.919E-5,0
STARLINK-32094,2024-086Q,2026-07-16T23:48:04.351392,15.27577544,.000141,43.0042,49.9709,266.0312,94.0379,0,U,59696,999,12388,.14468E-4,.136E-5,0
